CALSPHERE 1             
1 00900U 64063C   21053.91706753  .00000276  00000-0  28569-3 0  9995
2 00900  90.1596  32.4971 0028838  27.3788   5.5095 13.73487272804832
CALSPHERE 2             
1 00902U 64063E   21053.90450551  .00000045  00000-0  54490-4 0  9995
2 00902  90.1698  35.2677 0020328  98.8165 321.6038 13.52691848593948
LCS 1                   
1 01361U 65034C   21053.77095878  .00000009  00000-0  91097-4 0  9990
2 01361  32.1411 104.2062 0009473 333.9556  26.0464  9.89298827 17728
TEMPSAT 1               
1 01512U 65065E   21053.91623934  .00000033  00000-0  48338-4 0  9995
2 01512  89.8846 223.2297 0068223 297.7432 217.2911 13.33435074701460
CALSPHERE 4A            
1 01520U 65065H   21053.76510771  .00000035  00000-0  50807-4 0  9997
2 01520  90.0224 129.8251 0070751 174.5392 310.1774 13.35835313703611
OPS 5712 (P/L 160)      
1 02826U 67053A   21054.17164937  .00000638  00000-0  18272-3 0  9999
2 02826  69.9296 332.0882 0008911 285.6888  74.3262 14.49382485783764
OPS 5712 (P/L 153)      
1 02874U 67053H   21054.13444671  .00000004  00000-0  41643-4 0  9990
2 02874  69.9749 311.7712 0008769 212.8246 147.2315 13.96363433736396
SURCAL 150B             
1 02909U 67053J   21054.45330131  .00000943  00000-0  20067-3 0  9997
2 02909  69.9495 343.3844 0005396 304.5650  55.4980 14.62162361794068
RIGIDSPHERE 2 (LCS 4)   
1 05398U 71067E   21054.53616539  .00000185  00000-0  58284-4 0  9991
2 05398  87.6296 155.1534 0064468 163.1890 197.1465 14.33963290595850
COSMOS 2493 (SKRL-756 1)
1 39490U 13078A   21054.42807437  .00000344  00000-0  34161-4 0  9991
2 39490  82.4212 332.9300 0015917 244.1244 115.8333 14.88735285388745
COSMOS 2494 (SKRL-756 2)
1 39491U 13078B   21054.45247330  .00000360  00000-0  34577-4 0  9994
2 39491  82.4209 327.7006 0020886 222.8283 137.1310 14.90126977388998
